{
  "type": "FeatureCollection",
  "features": [
    {
      "type": "Feature",
      "properties": {
        "norad_id": 29857,
        "name": "FENGYUN 1C DEB",
        "group": "fengyun-1c-debris",
        "lat": -15.787333587732428,
        "lon": -2.96601943355513,
        "alt_km": 872.1124383816623,
        "timestamp": "2025-12-13T08:49:15.957899+00:00",
        "meta_object_name": "FENGYUN 1C DEB",
        "meta_object_id": "1999-025FB",
        "meta_epoch": "2025-12-13T00:12:29.307456",
        "meta_mean_motion": 13.81881339,
        "meta_eccentricity": 0.01928033,
        "meta_inclination": 98.4233,
        "meta_ra_of_asc_node": 354.3121,
        "meta_arg_of_pericenter": 293.6724,
        "meta_mean_anomaly": 64.4304,
        "meta_ephemeris_type": 0,
        "meta_classification_type": "U",
        "meta_norad_cat_id": 29857,
        "meta_element_set_no": 999,
        "meta_rev_at_epoch": 94779,
        "meta_bstar": 0.0024178726,
        "meta_mean_motion_dot": 2.948e-05,
        "meta_mean_motion_ddot": 0,
        "tle_line1": "1 29857U 99025FB  25347.00867254  .00002948  00000+0  24179-2 0  9996",
        "tle_line2": "2 29857  98.4233 354.3121 0192803 293.6724  64.4304 13.81881339947799"
      },
      "geometry": {
        "type": "Point",
        "coordinates": [
          -2.96601943355513,
          -15.787333587732428
        ]
      }
    },
    {
      "type": "Feature",
      "properties": {
        "norad_id": 29858,
        "name": "FENGYUN 1C DEB",
        "group": "fengyun-1c-debris",
        "lat": -54.4228447083749,
        "lon": -104.13638389930692,
        "alt_km": 1123.3203982339146,
        "timestamp": "2025-12-13T08:49:15.957909+00:00",
        "meta_object_name": "FENGYUN 1C DEB",
        "meta_object_id": "1999-025FC",
        "meta_epoch": "2025-12-12T05:41:24.972576",
        "meta_mean_motion": 13.77785539,
        "meta_eccentricity": 0.01984219,
        "meta_inclination": 99.2126,
        "meta_ra_of_asc_node": 87.8797,
        "meta_arg_of_pericenter": 65.6976,
        "meta_mean_anomaly": 325.3369,
        "meta_ephemeris_type": 0,
        "meta_classification_type": "U",
        "meta_norad_cat_id": 29858,
        "meta_element_set_no": 999,
        "meta_rev_at_epoch": 94547,
        "meta_bstar": 0.0016195929,
        "meta_mean_motion_dot": 1.833e-05,
        "meta_mean_motion_ddot": 0,
        "tle_line1": "1 29858U 99025FC  25346.23709459  .00001833  00000+0  16196-2 0  9995",
        "tle_line2": "2 29858  99.2126  87.8797 0198421  65.6976 325.3369 13.77785539945478"
      },
      "geometry": {
        "type": "Point",
        "coordinates": [
          -104.13638389930692,
          -54.4228447083749
        ]
      }
    },
    {
      "type": "Feature",
      "properties": {
        "norad_id": 29859,
        "name": "FENGYUN 1C DEB",
        "group": "fengyun-1c-debris",
        "lat": 39.83204719474034,
        "lon": 9.028631903961202,
        "alt_km": 908.0478894036532,
        "timestamp": "2025-12-13T08:49:15.957919+00:00",
        "meta_object_name": "FENGYUN 1C DEB",
        "meta_object_id": "1999-025FD",
        "meta_epoch": "2025-12-12T12:53:43.647936",
        "meta_mean_motion": 13.74032441,
        "meta_eccentricity": 0.02949859,
        "meta_inclination": 98.3356,
        "meta_ra_of_asc_node": 181.2788,
        "meta_arg_of_pericenter": 213.5225,
        "meta_mean_anomaly": 144.6951,
        "meta_ephemeris_type": 0,
        "meta_classification_type": "U",
        "meta_norad_cat_id": 29859,
        "meta_element_set_no": 999,
        "meta_rev_at_epoch": 93977,
        "meta_bstar": 0.003810391,
        "meta_mean_motion_dot": 4.867e-05,
        "meta_mean_motion_ddot": 0,
        "tle_line1": "1 29859U 99025FD  25346.53731074  .00004867  00000+0  38104-2 0  9990",
        "tle_line2": "2 29859  98.3356 181.2788 0294985 213.5225 144.6951 13.74032441939775"
      },
      "geometry": {
        "type": "Point",
        "coordinates": [
          9.028631903961202,
          39.83204719474034
        ]
      }
    },
    {
      "type": "Feature",
      "properties": {
        "norad_id": 29860,
        "name": "FENGYUN 1C DEB",
        "group": "fengyun-1c-debris",
        "lat": -68.28347758391894,
        "lon": 43.602869300710616,
        "alt_km": 876.6419217651901,
        "timestamp": "2025-12-13T08:49:15.957929+00:00",
        "meta_object_name": "FENGYUN 1C DEB",
        "meta_object_id": "1999-025FE",
        "meta_epoch": "2025-12-12T16:19:07.500288",
        "meta_mean_motion": 13.77527981,
        "meta_eccentricity": 0.02210096,
        "meta_inclination": 98.6179,
        "meta_ra_of_asc_node": 20.598,
        "meta_arg_of_pericenter": 343.4388,
        "meta_mean_anomaly": 140.5529,
        "meta_ephemeris_type": 0,
        "meta_classification_type": "U",
        "meta_norad_cat_id": 29860,
        "meta_element_set_no": 999,
        "meta_rev_at_epoch": 94138,
        "meta_bstar": 0.0033393528,
        "meta_mean_motion_dot": 3.946e-05,
        "meta_mean_motion_ddot": 0,
        "tle_line1": "1 29860U 99025FE  25346.67994792  .00003946  00000+0  33394-2 0  9998",
        "tle_line2": "2 29860  98.6179  20.5980 0221009 343.4388 140.5529 13.77527981941389"
      },
      "geometry": {
        "type": "Point",
        "coordinates": [
          43.602869300710616,
          -68.28347758391894
        ]
      }
    },
    {
      "type": "Feature",
      "properties": {
        "norad_id": 29865,
        "name": "FENGYUN 1C DEB",
        "group": "fengyun-1c-debris",
        "lat": -79.84421464956168,
        "lon": 16.93910702872513,
        "alt_km": 675.4807036440625,
        "timestamp": "2025-12-13T08:49:15.957939+00:00",
        "meta_object_name": "FENGYUN 1C DEB",
        "meta_object_id": "1999-025FK",
        "meta_epoch": "2025-12-12T17:11:44.341152",
        "meta_mean_motion": 14.8259663,
        "meta_eccentricity": 0.01163868,
        "meta_inclination": 98.9198,
        "meta_ra_of_asc_node": 257.4676,
        "meta_arg_of_pericenter": 141.3544,
        "meta_mean_anomaly": 249.7947,
        "meta_ephemeris_type": 0,
        "meta_classification_type": "U",
        "meta_norad_cat_id": 29865,
        "meta_element_set_no": 999,
        "meta_rev_at_epoch": 758,
        "meta_bstar": 0.0010196482,
        "meta_mean_motion_dot": 9.178e-05,
        "meta_mean_motion_ddot": 0,
        "tle_line1": "1 29865U 99025FK  25346.71648543  .00009178  00000+0  10196-2 0  9996",
        "tle_line2": "2 29865  98.9198 257.4676 0116386 141.3544 249.7947 14.82596630  7586"
      },
      "geometry": {
        "type": "Point",
        "coordinates": [
          16.93910702872513,
          -79.84421464956168
        ]
      }
    },
    {
      "type": "Feature",
      "properties": {
        "norad_id": 29866,
        "name": "FENGYUN 1C DEB",
        "group": "fengyun-1c-debris",
        "lat": -6.54284258307233,
        "lon": -25.98655740212481,
        "alt_km": 788.3678469202687,
        "timestamp": "2025-12-13T08:49:15.957949+00:00",
        "meta_object_name": "FENGYUN 1C DEB",
        "meta_object_id": "1999-025FL",
        "meta_epoch": "2025-12-12T23:18:18.275040",
        "meta_mean_motion": 14.64215448,
        "meta_eccentricity": 0.01943557,
        "meta_inclination": 98.0375,
        "meta_ra_of_asc_node": 332.6976,
        "meta_arg_of_pericenter": 214.132,
        "meta_mean_anomaly": 209.1742,
        "meta_ephemeris_type": 0,
        "meta_classification_type": "U",
        "meta_norad_cat_id": 29866,
        "meta_element_set_no": 999,
        "meta_rev_at_epoch": 330,
        "meta_bstar": 0.0004462599,
        "meta_mean_motion_dot": 3.04e-05,
        "meta_mean_motion_ddot": 0,
        "tle_line1": "1 29866U 99025FL  25346.97104485  .00003040  00000+0  44626-3 0  9995",
        "tle_line2": "2 29866  98.0375 332.6976 0194355 214.1320 209.1742 14.64215448  3301"
      },
      "geometry": {
        "type": "Point",
        "coordinates": [
          -25.98655740212481,
          -6.54284258307233
        ]
      }
    },
    {
      "type": "Feature",
      "properties": {
        "norad_id": 29868,
        "name": "FENGYUN 1C DEB",
        "group": "fengyun-1c-debris",
        "lat": -42.001083754052004,
        "lon": -154.12851401616484,
        "alt_km": 744.8295078190749,
        "timestamp": "2025-12-13T08:49:15.957959+00:00",
        "meta_object_name": "FENGYUN 1C DEB",
        "meta_object_id": "1999-025FN",
        "meta_epoch": "2025-12-12T21:14:26.498688",
        "meta_mean_motion": 14.78427363,
        "meta_eccentricity": 0.01967515,
        "meta_inclination": 97.9507,
        "meta_ra_of_asc_node": 32.6241,
        "meta_arg_of_pericenter": 3.5818,
        "meta_mean_anomaly": 173.7396,
        "meta_ephemeris_type": 0,
        "meta_classification_type": "U",
        "meta_norad_cat_id": 29868,
        "meta_element_set_no": 999,
        "meta_rev_at_epoch": 297,
        "meta_bstar": 0.00096814739,
        "meta_mean_motion_dot": 9.723e-05,
        "meta_mean_motion_ddot": 0,
        "tle_line1": "1 29868U 99025FN  25346.88502892  .00009723  00000+0  96815-3 0  9992",
        "tle_line2": "2 29868  97.9507  32.6241 0196751   3.5818 173.7396 14.78427363  2973"
      },
      "geometry": {
        "type": "Point",
        "coordinates": [
          -154.12851401616484,
          -42.001083754052004
        ]
      }
    }
  ]
}